{"type": "FeatureCollection", "features": [ {"type": "Feature", "properties": {"norad_id": 29795, "name": "FENGYUN 1C DEB", "group": "fengyun-1c-debris", "lat": 77.93196206453526, "lon": 80.21523258088885, "alt_km": 988.4685373113161, "timestamp": "2025-12-24T05:51:19.879791+00:00", "meta": {"OBJECT_NAME": "FENGYUN 1C DEB", "OBJECT_ID": "1999-025CM", "EPOCH": "2025-12-22T19:44:00.756672", "MEAN_MOTION": 13.92914072, "ECCENTRICITY": 0.01111823, "INCLINATION": 98.8708, "RA_OF_ASC_NODE": 125.7776, "ARG_OF_PERICENTER": 248.3389, "MEAN_ANOMALY": 268.3974, "EPHEMERIS_TYPE": 0, "CLASSIFICATION_TYPE": "U", "NORAD_CAT_ID": 29795, "ELEMENT_SET_NO": 999, "REV_AT_EPOCH": 96205, "BSTAR": 0.00024811306, "MEAN_MOTION_DOT": 2.96e-06, "MEAN_MOTION_DDOT": 0}, "tle": {"line1": "1 29795U 99025CM  25356.82223098  .00000296  00000+0  24811-3 0  9997", "line2": "2 29795  98.8708 125.7776 0111182 248.3389 268.3974 13.92914072962059"}}, "geometry": {"type": "Point", "coordinates": [80.21523258088885, 77.93196206453526]}}, {"type": "Feature", "properties": {"norad_id": 29796, "name": "FENGYUN 1C DEB", "group": "fengyun-1c-debris", "lat": 30.31174206118727, "lon": -124.77555492603601, "alt_km": 846.7282671166486, "timestamp": "2025-12-24T05:51:19.879801+00:00", "meta": {"OBJECT_NAME": "FENGYUN 1C DEB", "OBJECT_ID": "1999-025CN", "EPOCH": "2025-12-23T21:29:19.578336", "MEAN_MOTION": 14.12361981, "ECCENTRICITY": 0.00523913, "INCLINATION": 98.8636, "RA_OF_ASC_NODE": 49.6455, "ARG_OF_PERICENTER": 236.0546, "MEAN_ANOMALY": 302.1851, "EPHEMERIS_TYPE": 0, "CLASSIFICATION_TYPE": "U", "NORAD_CAT_ID": 29796, "ELEMENT_SET_NO": 999, "REV_AT_EPOCH": 97218, "BSTAR": 0.00063033919, "MEAN_MOTION_DOT": 1.132e-05, "MEAN_MOTION_DDOT": 0}, "tle": {"line1": "1 29796U 99025CN  25357.89536549  .00001132  00000+0  63034-3 0  9994", "line2": "2 29796  98.8636  49.6455 0052391 236.0546 302.1851 14.12361981972187"}}, "geometry": {"type": "Point", "coordinates": [-124.77555492603601, 30.31174206118727]}}, {"type": "Feature", "properties": {"norad_id": 29798, "name": "FENGYUN 1C DEB", "group": "fengyun-1c-debris", "lat": -14.837772004313994, "lon": 64.81238480586532, "alt_km": 918.4870257236598, "timestamp": "2025-12-24T05:51:19.879811+00:00", "meta": {"OBJECT_NAME": "FENGYUN 1C DEB", "OBJECT_ID": "1999-025CQ", "EPOCH": "2025-12-23T15:16:46.852896", "MEAN_MOTION": 13.99614955, "ECCENTRICITY": 0.01120774, "INCLINATION": 99.2954, "RA_OF_ASC_NODE": 61.7092, "ARG_OF_PERICENTER": 242.7933, "MEAN_ANOMALY": 282.607, "EPHEMERIS_TYPE": 0, "CLASSIFICATION_TYPE": "U", "NORAD_CAT_ID": 29798, "ELEMENT_SET_NO": 999, "REV_AT_EPOCH": 96077, "BSTAR": 0.0013232884, "MEAN_MOTION_DOT": 1.994e-05, "MEAN_MOTION_DDOT": 0}, "tle": {"line1": "1 29798U 99025CQ  25357.63665339  .00001994  00000+0  13233-2 0  9999", "line2": "2 29798  99.2954  61.7092 0112077 242.7933 282.6070 13.99614955960774"}}, "geometry": {"type": "Point", "coordinates": [64.81238480586532, -14.837772004313994]}}, {"type": "Feature", "properties": {"norad_id": 29800, "name": "FENGYUN 1C DEB", "group": "fengyun-1c-debris", "lat": 70.48801005617653, "lon": -136.94449472928738, "alt_km": 885.9991411335532, "timestamp": "2025-12-24T05:51:19.879821+00:00", "meta": {"OBJECT_NAME": "FENGYUN 1C DEB", "OBJECT_ID": "1999-025CS", "EPOCH": "2025-12-23T12:54:38.253600", "MEAN_MOTION": 13.98621406, "ECCENTRICITY": 0.01336195, "INCLINATION": 98.2902, "RA_OF_ASC_NODE": 18.1205, "ARG_OF_PERICENTER": 197.0676, "MEAN_ANOMALY": 319.2111, "EPHEMERIS_TYPE": 0, "CLASSIFICATION_TYPE": "U", "NORAD_CAT_ID": 29800, "ELEMENT_SET_NO": 999, "REV_AT_EPOCH": 95727, "BSTAR": 0.0015810519, "MEAN_MOTION_DOT": 2.412e-05, "MEAN_MOTION_DDOT": 0}, "tle": {"line1": "1 29800U 99025CS  25357.53794275  .00002412  00000+0  15811-2 0  9994", "line2": "2 29800  98.2902  18.1205 0133619 197.0676 319.2111 13.98621406957275"}}, "geometry": {"type": "Point", "coordinates": [-136.94449472928738, 70.48801005617653]}}, {"type": "Feature", "properties": {"norad_id": 29801, "name": "FENGYUN 1C DEB", "group": "fengyun-1c-debris", "lat": 42.996865618334596, "lon": 87.80040623515333, "alt_km": 776.4601584123848, "timestamp": "2025-12-24T05:51:19.879832+00:00", "meta": {"OBJECT_NAME": "FENGYUN 1C DEB", "OBJECT_ID": "1999-025CT", "EPOCH": "2025-12-23T08:01:12.586080", "MEAN_MOTION": 14.3590804, "ECCENTRICITY": 0.01028803, "INCLINATION": 98.7951, "RA_OF_ASC_NODE": 258.5724, "ARG_OF_PERICENTER": 235.8018, "MEAN_ANOMALY": 241.3002, "EPHEMERIS_TYPE": 0, "CLASSIFICATION_TYPE": "U", "NORAD_CAT_ID": 29801, "ELEMENT_SET_NO": 999, "REV_AT_EPOCH": 99093, "BSTAR": 0.00015220138, "MEAN_MOTION_DOT": 4.2e-06, "MEAN_MOTION_DDOT": 0}, "tle": {"line1": "1 29801U 99025CT  25357.33417345  .00000420  00000+0  15220-3 0  9995", "line2": "2 29801  98.7951 258.5724 0102880 235.8018 241.3002 14.35908040990936"}}, "geometry": {"type": "Point", "coordinates": [87.80040623515333, 42.996865618334596]}}, {"type": "Feature", "properties": {"norad_id": 29802, "name": "FENGYUN 1C DEB", "group": "fengyun-1c-debris", "lat": 41.43839374540834, "lon": -64.44627204159782, "alt_km": 706.8638904509044, "timestamp": "2025-12-24T05:51:19.879842+00:00", "meta": {"OBJECT_NAME": "FENGYUN 1C DEB", "OBJECT_ID": "1999-025CU", "EPOCH": "2025-12-22T20:57:10.838304", "MEAN_MOTION": 14.62560344, "ECCENTRICITY": 0.0037349, "INCLINATION": 98.6194, "RA_OF_ASC_NODE": 106.4279, "ARG_OF_PERICENTER": 306.683, "MEAN_ANOMALY": 177.1834, "EPHEMERIS_TYPE": 0, "CLASSIFICATION_TYPE": "U", "NORAD_CAT_ID": 29802, "ELEMENT_SET_NO": 999, "REV_AT_EPOCH": 98621, "BSTAR": 0.0029174, "MEAN_MOTION_DOT": 0.00014934, "MEAN_MOTION_DDOT": 0}, "tle": {"line1": "1 29802U 99025CU  25356.87304211  .00014934  00000+0  29174-2 0  9998", "line2": "2 29802  98.6194 106.4279 0037349 306.6830 177.1834 14.62560344986213"}}, "geometry": {"type": "Point", "coordinates": [-64.44627204159782, 41.43839374540834]}}, {"type": "Feature", "properties": {"norad_id": 29804, "name": "FENGYUN 1C DEB", "group": "fengyun-1c-debris", "lat": -42.52757593172038, "lon": 177.93037328293536, "alt_km": 836.4436360537493, "timestamp": "2025-12-24T05:51:19.879852+00:00", "meta": {"OBJECT_NAME": "FENGYUN 1C DEB", "OBJECT_ID": "1999-025CW", "EPOCH": "2025-12-23T23:55:38.843904", "MEAN_MOTION": 14.04323498, "ECCENTRICITY": 0.00969754, "INCLINATION": 98.8048, "RA_OF_ASC_NODE": 5.8638, "ARG_OF_PERICENTER": 270.0593, "MEAN_ANOMALY": 145.7602, "EPHEMERIS_TYPE": 0, "CLASSIFICATION_TYPE": "U", "NORAD_CAT_ID": 29804, "ELEMENT_SET_NO": 999, "REV_AT_EPOCH": 97052, "BSTAR": -4.8945026e-05, "MEAN_MOTION_DOT": -1.25e-06, "MEAN_MOTION_DDOT": 0}, "tle": {"line1": "1 29804U 99025CW  25357.99697736 -.00000125  00000+0 -48945-4 0  9999", "line2": "2 29804  98.8048   5.8638 0096975 270.0593 145.7602 14.04323498970520"}}, "geometry": {"type": "Point", "coordinates": [177.93037328293536, -42.52757593172038]}}, {"type": "Feature", "properties": {"norad_id": 29805, "name": "FENGYUN 1C DEB", "group": "fengyun-1c-debris", "lat": 24.907121310980383, "lon": -126.19494758998339, "alt_km": 890.026991262399, "timestamp": "2025-12-24T05:51:19.879862+00:00", "meta": {"OBJECT_NAME": "FENGYUN 1C DEB", "OBJECT_ID": "1999-025CX", "EPOCH": "2025-12-22T09:21:33.026976", "MEAN_MOTION": 13.72660525, "ECCENTRICITY": 0.01883468, "INCLINATION": 99.4536, "RA_OF_ASC_NODE": 47.5382, "ARG_OF_PERICENTER": 204.6188, "MEAN_ANOMALY": 154.588, "EPHEMERIS_TYPE": 0, "CLASSIFICATION_TYPE": "U", "NORAD_CAT_ID": 29805, "ELEMENT_SET_NO": 999, "REV_AT_EPOCH": 94835, "BSTAR": 0.00016344227, "MEAN_MOTION_DOT": 1.26e-06, "MEAN_MOTION_DDOT": 0}, "tle": {"line1": "1 29805U 99025CX  25356.38996559  .00000126  00000+0  16344-3 0  9993", "line2": "2 29805  99.4536  47.5382 0188346 204.6188 154.5880 13.72660525948357"}}, "geometry": {"type": "Point", "coordinates": [-126.19494758998339, 24.907121310980383]}}, {"type": "Feature", "properties": {"norad_id": 29806, "name": "FENGYUN 1C DEB", "group": "fengyun-1c-debris", "lat": -10.01978617455316, "lon": -167.845906002895, "alt_km": 838.7794398352835, "timestamp": "2025-12-24T05:51:19.879872+00:00", "meta": {"OBJECT_NAME": "FENGYUN 1C DEB", "OBJECT_ID": "1999-025CY", "EPOCH": "2025-12-23T19:36:33.925248", "MEAN_MOTION": 14.12027008, "ECCENTRICITY": 0.00279464, "INCLINATION": 98.7123, "RA_OF_ASC_NODE": 13.2918, "ARG_OF_PERICENTER": 219.7287, "MEAN_ANOMALY": 321.4922, "EPHEMERIS_TYPE": 0, "CLASSIFICATION_TYPE": "U", "NORAD_CAT_ID": 29806, "ELEMENT_SET_NO": 999, "REV_AT_EPOCH": 97295, "BSTAR": 0.00046205238, "MEAN_MOTION_DOT": 8.06e-06, "MEAN_MOTION_DDOT": 0}, "tle": {"line1": "1 29806U 99025CY  25357.81705932  .00000806  00000+0  46205-3 0  9990", "line2": "2 29806  98.7123  13.2918 0027946 219.7287 321.4922 14.12027008972955"}}, "geometry": {"type": "Point", "coordinates": [-167.845906002895, -10.01978617455316]}}, {"type": "Feature", "properties": {"norad_id": 29807, "name": "FENGYUN 1C DEB", "group": "fengyun-1c-debris", "lat": 63.46239535023775, "lon": -159.49604195915956, "alt_km": 914.8689277709218, "timestamp": "2025-12-24T05:51:19.879883+00:00", "meta": {"OBJECT_NAME": "FENGYUN 1C DEB", "OBJECT_ID": "1999-025CZ", "EPOCH": "2025-12-23T22:29:19.976064", "MEAN_MOTION": 14.08667934, "ECCENTRICITY": 0.00791191, "INCLINATION": 98.7548, "RA_OF_ASC_NODE": 2.2332, "ARG_OF_PERICENTER": 300.052, "MEAN_ANOMALY": 59.2819, "EPHEMERIS_TYPE": 0, "CLASSIFICATION_TYPE": "U", "NORAD_CAT_ID": 29807, "ELEMENT_SET_NO": 999, "REV_AT_EPOCH": 97252, "BSTAR": 0.000273856, "MEAN_MOTION_DOT": 4.42e-06, "MEAN_MOTION_DDOT": 0}, "tle": {"line1": "1 29807U 99025CZ  25357.93703676  .00000442  00000+0  27386-3 0  9992", "line2": "2 29807  98.7548   2.2332 0079119 300.0520  59.2819 14.08667934972525"}}, "geometry": {"type": "Point", "coordinates": [-159.49604195915956, 63.46239535023775]}}]}